[{"OBJECT_ID":"2015-075E","OBJECT_NAME":"BREEZE-M DEB","NORAD_CAT_ID":"41544","OBJECT_TYPE":"DEBRIS","PERIOD":"1362.593","INCLINATION":"0.5382","APOGEE":"35550.786","PERIGEE":"33119.811","ECCENTRICITY":"0.0298547","MEAN_MOTION":"1.05680816","TLE_LINE1":"1 41544U 15075E   16237.47823666 -.00000155  00000-0  00000+0 0  9998","TLE_LINE2":"2 41544   0.5382 118.1042 0298547  42.9023 200.1357  1.05680816  2342","LAUNCH_DATE":"2015-12-13","LAUNCH_SITE":"TYURATAM MISSILE AND SPACE COMPLEX","OWNER":"COMMONWEALTH OF INDEPENDENT STATES","ORBIT_TYPE":"Unclassified","OPERATIONAL_STATUS":"N/A, space debris","satInfo":{"lng":-37.66171284678557,"lat":-0.0975740024741567,"elevation":-8.990097973031945,"azimuth":352.6617128467856,"range":41124.20583436299,"height":34240.93166356069,"velocity":3.1362690698440256},"x":-152,"y":-197,"dx":2.48277096007704,"dy":-1.91625469034219,"maxAlt":255,"minAlt":237},{"OBJECT_ID":"2015-075F","OBJECT_NAME":"BREEZE-M DEB","NORAD_CAT_ID":"41545","OBJECT_TYPE":"DEBRIS","PERIOD":"1363.184","INCLINATION":"0.5382","APOGEE":"35409.955","PERIGEE":"33284.189","ECCENTRICITY":"0.0260989","MEAN_MOTION":"1.05634993","TLE_LINE1":"1 41545U 15075F   16235.67824173 -.00000091 +00000-0 +00000-0 0  9993","TLE_LINE2":"2 41545 000.5382 121.5247 0260989 043.4208 195.8531 01.05634993002336","LAUNCH_DATE":"2015-12-13","LAUNCH_SITE":"TYURATAM MISSILE AND SPACE COMPLEX","OWNER":"COMMONWEALTH OF INDEPENDENT STATES","ORBIT_TYPE":"Unclassified","OPERATIONAL_STATUS":"N/A, space debris","satInfo":{"lng":105.99730424917229,"lat":1.6661426090535543,"elevation":-7.38756583199333,"azimuth":209.00269575082768,"range":40389.33457180938,"height":33692.852666182036,"velocity":3.179205259417296},"x":232,"y":65,"dx":-0.8761639440977261,"dy":3.0560894660611155,"maxAlt":254,"minAlt":238},{"OBJECT_ID":"2015-075G","OBJECT_NAME":"BREEZE-M DEB","NORAD_CAT_ID":"41546","OBJECT_TYPE":"DEBRIS","PERIOD":"1376.156","INCLINATION":"0.5543","APOGEE":"35616.607","PERIGEE":"33593.449","ECCENTRICITY":"0.0246828","MEAN_MOTION":"1.04639232","TLE_LINE1":"1 41546U 15075G   16237.77216399 -.00000198  00000-0  00000+0 0  9999","TLE_LINE2":"2 41546   0.5543 131.4778 0246828  18.7716 211.1783  1.04639232  2320","LAUNCH_DATE":"2015-12-13","LAUNCH_SITE":"TYURATAM MISSILE AND SPACE COMPLEX","OWNER":"COMMONWEALTH OF INDEPENDENT STATES","ORBIT_TYPE":"Unclassified","OPERATIONAL_STATUS":"N/A, space debris","satInfo":{"lng":-144.9049092847436,"lat":-1.9330632147914375,"elevation":-10.498430837034665,"azimuth":99.90490928474358,"range":42649.15254483043,"height":35580.9182944559,"velocity":3.045294418879203},"x":-149,"y":208,"dx":-2.491656795554301,"dy":-1.7508467982164788,"maxAlt":255,"minAlt":241},{"OBJECT_ID":"2015-075J","OBJECT_NAME":"BREEZE-M DEB","NORAD_CAT_ID":"41548","OBJECT_TYPE":"DEBRIS","PERIOD":"1409.062","INCLINATION":"1.01","APOGEE":"36894.013","PERIGEE":"33617.485","ECCENTRICITY":"0.0393493","MEAN_MOTION":"1.02195639","TLE_LINE1":"1 41548U 15075J   16228.57390672 -.00000272 +00000-0 +00000-0 0  9990","TLE_LINE2":"2 41548 001.0100 063.8404 0393493 056.6175 307.7740 01.02195639002558","LAUNCH_DATE":"2015-12-13","LAUNCH_SITE":"TYURATAM MISSILE AND SPACE COMPLEX","OWNER":"COMMONWEALTH OF INDEPENDENT STATES","ORBIT_TYPE":"Unclassified","OPERATIONAL_STATUS":"N/A, space debris","satInfo":{"lng":8.993257063747887,"lat":3.00088879473279,"elevation":-6.0821450428232025,"azimuth":306.0067429362521,"range":40228.107233351126,"height":33678.39682939319,"velocity":3.213785935840242},"x":36,"y":-241,"dx":3.17427804250666,"dy":0.502373317628061,"maxAlt":264,"minAlt":241},{"OBJECT_ID":"2016-031A","OBJECT_NAME":"THAICOM 8","NORAD_CAT_ID":"41552","OBJECT_TYPE":"PAYLOAD","PERIOD":"1436.093","INCLINATION":"0.0677","APOGEE":"35795.188","PERIGEE":"35777.875","ECCENTRICITY":"0.0002053","MEAN_MOTION":"1.00272016","TLE_LINE1":"1 41552U 16031A   16238.85274488 -.00000149 +00000-0 +00000-0 0  9999","TLE_LINE2":"2 41552 000.0677 052.9549 0002053 037.8073 269.2548 01.00272016000804","LAUNCH_DATE":"2016-05-27","LAUNCH_SITE":"AIR FORCE EASTERN TEST RANGE","OWNER":"THAILAND","ORBIT_TYPE":"Geosynchronous","OPERATIONAL_STATUS":"Operational","satInfo":{"lng":72.17980876251731,"lat":0.2867892783560425,"elevation":-8.2935550412122,"azimuth":242.82019123748267,"range":42610.0607272642,"height":35786.83626839395,"velocity":3.0746411231329067},"x":244,"y":-80,"dx":0.9409349434272305,"dy":2.9271247783956147,"maxAlt":256,"minAlt":256},{"OBJECT_ID":"2016-037A","OBJECT_NAME":"BEIDOU G7","NORAD_CAT_ID":"41586","OBJECT_TYPE":"PAYLOAD","PERIOD":"1436.064","INCLINATION":"1.732","APOGEE":"35801.834","PERIGEE":"35770.084","ECCENTRICITY":"0.0003765","MEAN_MOTION":"1.00274058","TLE_LINE1":"1 41586U 16037A   16238.52689913 -.00000274 +00000-0 +00000-0 0  9998","TLE_LINE2":"2 41586 001.7320 308.3119 0003765 268.7600 091.2952 01.00274058000874","LAUNCH_DATE":"2016-06-12","LAUNCH_SITE":"Xichang Space Center, China","OWNER":"PEOPLES REPUBLIC OF CHINA","ORBIT_TYPE":"Geosynchronous","OPERATIONAL_STATUS":"Operational","satInfo":{"lng":-38.84064345207138,"lat":0.06961134662757115,"elevation":-8.500339031254368,"azimuth":353.84064345207145,"range":42660.76992672524,"height":35814.034996427275,"velocity":3.073227851943791},"x":-163,"y":-202,"dx":2.393716521542811,"dy":-1.9273947816822659,"maxAlt":256,"minAlt":256},{"OBJECT_ID":"2016-050A","OBJECT_NAME":"JCSAT 16","NORAD_CAT_ID":"41729","OBJECT_TYPE":"PAYLOAD","PERIOD":"1436.074","INCLINATION":"0.0588","APOGEE":"35795.861","PERIGEE":"35776.465","ECCENTRICITY":"0.00023","MEAN_MOTION":"1.00273332","TLE_LINE1":"1 41729U 16050A   16238.84759331 -.00000228 +00000-0 +00000-0 0  9998","TLE_LINE2":"2 41729 000.0588 284.8956 0002300 245.1885 259.5796 01.00273332000178","LAUNCH_DATE":"2016-08-14","LAUNCH_SITE":"AIR FORCE EASTERN TEST RANGE","OWNER":"JAPAN","ORBIT_TYPE":"Geosynchronous","OPERATIONAL_STATUS":"Operational","satInfo":{"lng":-129.08172927968423,"lat":2.204527949058678,"elevation":-6.40650806904493,"azimuth":84.08172927968421,"range":42437.96956943274,"height":35826.022707506476,"velocity":3.072925196471359},"x":-202,"y":161,"dx":-1.9372590273410903,"dy":-2.385350440521055,"maxAlt":256,"minAlt":256}]